[{"OBJECT_NAME":"ICEYE-X42","OBJECT_ID":"2025-009CT","EPOCH":"2026-03-09T19:19:49.858752","MEAN_MOTION":14.9185355,"ECCENTRICITY":6.259e-5,"INCLINATION":97.7407,"RA_OF_ASC_NODE":148.9068,"ARG_OF_PERICENTER":137.7019,"MEAN_ANOMALY":222.4248,"EPHEMERIS_TYPE":0,"CLASSIFICATION_TYPE":"U","NORAD_CAT_ID":62698,"ELEMENT_SET_NO":999,"REV_AT_EPOCH":6247,"BSTAR":0.00029395689,"MEAN_MOTION_DOT":2.913e-5,"MEAN_MOTION_DDOT":0},{"OBJECT_NAME":"SL-14 R\/B","OBJECT_ID":"1978-067B","EPOCH":"2026-03-09T22:30:47.092320","MEAN_MOTION":14.90008937,"ECCENTRICITY":0.00157451,"INCLINATION":82.4825,"RA_OF_ASC_NODE":26.8126,"ARG_OF_PERICENTER":203.7686,"MEAN_ANOMALY":156.2807,"EPHEMERIS_TYPE":0,"CLASSIFICATION_TYPE":"U","NORAD_CAT_ID":10974,"ELEMENT_SET_NO":999,"REV_AT_EPOCH":56044,"BSTAR":8.0843226e-5,"MEAN_MOTION_DOT":8.06e-6,"MEAN_MOTION_DDOT":0}]
